     2              NAVIGATION DATA                         RINEX VERSION / TYPE
CCRINEXN V1.6.0 UX  CDDIS               04-JUL-18 09:09     PGM / RUN BY / DATE 
IGS BROADCAST EPHEMERIS FILE                                COMMENT             
    0.4657D-08  0.1490D-07 -0.5960D-07 -0.1192D-06          ION ALPHA           
    0.8192D+05  0.8192D+05 -0.6554D+05 -0.5243D+06          ION BETA            
   -0.558793544769D-08-0.106581410364D-13   503808     2008 DELTA-UTC: A0,A1,T,W
    18                                                      LEAP SECONDS        
                                                            END OF HEADER       
22 18  7  4 13 59 44.0-0.446989666671D-03-0.121644916362D-10 0.000000000000D+00
    0.210000000000D+02-0.615937500000D+02 0.516914388702D-08 0.406692966909D+00
   -0.317580997944D-05 0.730922259390D-02 0.923499464989D-05 0.515377632904D+04
    0.309584000000D+06-0.111758708954D-06-0.239356850978D+01-0.108033418655D-06
    0.925384828050D+00 0.186843750000D+03-0.151656428294D+01-0.842106505688D-08
   -0.148577617426D-09 0.100000000000D+01 0.200800000000D+04 0.000000000000D+00
    0.200000000000D+01 0.000000000000D+00-0.176951289177D-07 0.210000000000D+02
    0.302460000000D+06 0.400000000000D+01 0.000000000000D+00 0.000000000000D+00
29 18  7  4 13 59 44.0 0.420904718339D-03-0.682121026330D-11 0.000000000000D+00
    0.100000000000D+02 0.384062500000D+02 0.402409619119D-08 0.193405361892D+01
    0.181607902050D-05 0.845891772769D-03 0.643730163574D-05 0.515367254448D+04
    0.309584000000D+06-0.502914190292D-07 0.191676102900D+01-0.242143869400D-07
    0.984038509611D+00 0.265468750000D+03 0.133480752987D+01-0.788139972050D-08
    0.660741808263D-10 0.100000000000D+01 0.200800000000D+04 0.000000000000D+00
    0.200000000000D+01 0.000000000000D+00-0.102445483208D-07 0.100000000000D+02
    0.305040000000D+06 0.000000000000D+00 0.000000000000D+00 0.000000000000D+00
 1 18  7  4 14  0  0.0-0.624526292086D-04-0.375166564481D-11 0.000000000000D+00
    0.180000000000D+02-0.458750000000D+02 0.442089843388D-08-0.106399237203D+01
   -0.238977372646D-05 0.795941951219D-02 0.440888106823D-05 0.515366581917D+04
    0.309600000000D+06 0.195577740669D-06 0.290818254529D+01 0.186264514923D-08
    0.972009174164D+00 0.300687500000D+03 0.653551248084D+00-0.817676916668D-08
   -0.177507393895D-09 0.100000000000D+01 0.200800000000D+04 0.000000000000D+00
    0.200000000000D+01 0.000000000000D+00 0.558793544769D-08 0.180000000000D+02
    0.302430000000D+06 0.400000000000D+01 0.000000000000D+00 0.000000000000D+00
 2 18  7  4 14  0  0.0 0.673700124025D-04-0.108002495835D-10 0.000000000000D+00
    0.520000000000D+02-0.277500000000D+02 0.511235580728D-08-0.736206966592D+00
   -0.131130218506D-05 0.179181509884D-01 0.442005693913D-05 0.515376557350D+04
    0.309600000000D+06-0.188127160072D-06 0.284628418458D+01 0.258907675743D-06
    0.951052755645D+00 0.292812500000D+03-0.184786416913D+01-0.881179561809D-08
   -0.792890169915D-10 0.100000000000D+01 0.200800000000D+04 0.000000000000D+00
    0.200000000000D+01 0.000000000000D+00-0.204890966415D-07 0.520000000000D+02
    0.302400000000D+06 0.000000000000D+00 0.000000000000D+00 0.000000000000D+00
 3 18  7  4 14  0  0.0 0.100185163319D-03 0.625277607469D-11 0.000000000000D+00
    0.430000000000D+02-0.621562500000D+02 0.421267547484D-08-0.197331826849D+01
   -0.314228236675D-05 0.149594165850D-02 0.996142625809D-05 0.515373129272D+04
    0.309600000000D+06-0.726431608200D-07-0.233258281977D+01-0.149011611938D-07
    0.961227077320D+00 0.188031250000D+03 0.473167113012D+00-0.782889753358D-08
   -0.575023952056D-10 0.100000000000D+01 0.200800000000D+04 0.000000000000D+00
    0.200000000000D+01 0.000000000000D+00 0.232830643654D-08 0.430000000000D+02
    0.302460000000D+06 0.400000000000D+01 0.000000000000D+00 0.000000000000D+00
 4 18  7  4 14  0  0.0 0.757910311222D-04 0.352429196937D-11 0.000000000000D+00
    0.800000000000D+01 0.159375000000D+02 0.534200823037D-08 0.233539462731D+01
    0.748783349991D-06 0.980976223946D-02 0.888109207153D-05 0.515371332550D+04
    0.309600000000D+06-0.651925802231D-07 0.836665096128D+00-0.163912773132D-06
    0.978805795007D+00 0.218156250000D+03 0.932621513669D+00-0.766139055624D-08
   -0.170721396946D-09 0.100000000000D+01 0.200800000000D+04 0.000000000000D+00
    0.200000000000D+01 0.630000000000D+02-0.195577740669D-07 0.800000000000D+01
    0.309600000000D+06 0.000000000000D+00 0.000000000000D+00 0.000000000000D+00
 6 18  7  4 14  0  0.0 0.390365254134D-03-0.352429196937D-11 0.000000000000D+00
    0.450000000000D+02-0.429062500000D+02 0.448090093322D-08-0.899827056723D+00
   -0.217556953430D-05 0.108190276660D-02 0.445358455181D-05 0.515365315056D+04
    0.309600000000D+06-0.428408384323D-07 0.289985744570D+01 0.335276126862D-07
    0.971714557092D+00 0.301125000000D+03-0.104915811207D+01-0.821855662159D-08
   -0.104647216119D-09 0.100000000000D+01 0.200800000000D+04 0.000000000000D+00
    0.200000000000D+01 0.000000000000D+00 0.465661287308D-08 0.450000000000D+02
    0.302400000000D+06 0.000000000000D+00 0.000000000000D+00 0.000000000000D+00
 7 18  7  4 14  0  0.0 0.164550729096D-03-0.636646291241D-11 0.000000000000D+00
    0.650000000000D+02 0.662500000000D+01 0.485305929226D-08-0.173348170151D+01
    0.130385160446D-06 0.118541987613D-01 0.556558370590D-05 0.515364908218D+04
    0.309600000000D+06 0.126659870148D-06-0.221191681910D+00-0.931322574615D-07
    0.958446807362D+00 0.265718750000D+03-0.251826132559D+01-0.813391023858D-08
    0.592881838765D-10 0.100000000000D+01 0.200800000000D+04 0.000000000000D+00
    0.200000000000D+01 0.000000000000D+00-0.111758708954D-07 0.650000000000D+02
    0.309600000000D+06 0.000000000000D+00 0.000000000000D+00 0.000000000000D+00
 8 18  7  4 14  0  0.0-0.107010360807D-03-0.125055521494D-11 0.000000000000D+00
    0.930000000000D+02 0.527187500000D+02 0.443911347832D-08 0.142800376625D+01
    0.287406146526D-05 0.345146621112D-02 0.627152621746D-05 0.515359158325D+04
    0.309600000000D+06 0.689178705216D-07 0.184304041035D+01 0.260770320892D-07
    0.969227141389D+00 0.258312500000D+03-0.403815142259D+00-0.811283793226D-08
    0.567880797372D-10 0.100000000000D+01 0.200800000000D+04 0.000000000000D+00
    0.200000000000D+01 0.000000000000D+00 0.512227416039D-08 0.930000000000D+02
    0.302418000000D+06 0.400000000000D+01 0.000000000000D+00 0.000000000000D+00
 9 18  7  4 14  0  0.0 0.514199491590D-03-0.454747350886D-12 0.000000000000D+00
    0.710000000000D+02 0.331250000000D+02 0.468340936851D-08 0.132562097780D+01
    0.179372727871D-05 0.889490591362D-03 0.889413058758D-05 0.515359033203D+04
    0.309600000000D+06 0.391155481338D-07-0.129875957677D+01 0.000000000000D+00
    0.952303124893D+00 0.201937500000D+03 0.185945322914D+01-0.811783814054D-08
    0.417160233541D-09 0.100000000000D+01 0.200800000000D+04 0.000000000000D+00
    0.200000000000D+01 0.000000000000D+00 0.931322574616D-09 0.710000000000D+02
    0.302418000000D+06 0.400000000000D+01 0.000000000000D+00 0.000000000000D+00
11 18  7  4 14  0  0.0-0.731488224119D-03 0.147792889038D-11 0.000000000000D+00
    0.500000000000D+02 0.112500000000D+02 0.594346185476D-08-0.173090782004D+01
    0.841915607452D-06 0.169632709585D-01 0.317208468914D-05 0.515364097023D+04
    0.309600000000D+06-0.130385160446D-07 0.247879350889D+01 0.428408384323D-06
    0.905903169932D+00 0.289156250000D+03 0.177715748211D+01-0.891572851874D-08
   -0.246438836595D-10 0.100000000000D+01 0.200800000000D+04 0.000000000000D+00
    0.200000000000D+01 0.000000000000D+00-0.121071934700D-07 0.500000000000D+02
    0.302460000000D+06 0.400000000000D+01 0.000000000000D+00 0.000000000000D+00
12 18  7  4 14  0  0.0 0.323200132698D-03-0.250111042988D-11 0.000000000000D+00
    0.660000000000D+02 0.137187500000D+02 0.399945230753D-08-0.231230967469D+01
    0.765547156334D-06 0.714729097672D-02 0.902824103832D-05 0.515356763840D+04
    0.309600000000D+06 0.115483999252D-06 0.871787420005D+00-0.391155481338D-07
    0.986351618624D+00 0.218687500000D+03 0.100144898001D+01-0.768139138935D-08
   -0.109290266664D-09 0.100000000000D+01 0.200800000000D+04 0.000000000000D+00
    0.200000000000D+01 0.000000000000D+00-0.125728547573D-07 0.660000000000D+02
    0.302400000000D+06 0.000000000000D+00 0.000000000000D+00 0.000000000000D+00
13 18  7  4 14  0  0.0-0.928263179958D-04 0.454747350886D-12 0.000000000000D+00
    0.330000000000D+02 0.287812500000D+02 0.441768401427D-08-0.202094064658D+00
    0.138394534588D-05 0.329817703459D-02 0.833906233311D-05 0.515366226006D+04
    0.309600000000D+06-0.372529029846D-08-0.116644685956D+01-0.186264514923D-07
    0.968045581956D+00 0.223781250000D+03 0.154548377857D+01-0.801711965950D-08
    0.340728478423D-09 0.100000000000D+01 0.200800000000D+04 0.000000000000D+00
    0.200000000000D+01 0.000000000000D+00-0.111758708954D-07 0.330000000000D+02
    0.302400000000D+06 0.000000000000D+00 0.000000000000D+00 0.000000000000D+00
14 18  7  4 14  0  0.0-0.975676812232D-04-0.113686837722D-12 0.000000000000D+00
    0.700000000000D+02 0.342500000000D+02 0.458947688442D-08 0.787633161363D+00
    0.171363353729D-05 0.100305140950D-01 0.820681452751D-05 0.515360017967D+04
    0.309600000000D+06-0.178813934326D-06-0.120861175446D+01-0.111758708954D-07
    0.960583611340D+00 0.220500000000D+03-0.194830396245D+01-0.818641242551D-08
    0.225366530278D-09 0.100000000000D+01 0.200800000000D+04 0.000000000000D+00
    0.200000000000D+01 0.000000000000D+00-0.977888703346D-08 0.700000000000D+02
    0.302460000000D+06 0.400000000000D+01 0.000000000000D+00 0.000000000000D+00
